{
    "type": "FeatureCollection",
    "features": [
        {
            "type": "Feature",
            "geometry": {
                "type": "Point",
                "coordinates": [
                    30.4298731336,
                    39.8202239061
                ]
            },
            "properties": {
                "category_code": 8,
                "updated_at": "2026-09-28T18:36:22.727110"
            }
        },
        {
            "type": "Feature",
            "geometry": {
                "type": "Point",
                "coordinates": [
                    30.4362125347,
                    39.8125568504
                ]
            },
            "properties": {
                "category_code": 8,
                "updated_at": "2026-09-28T18:36:22.727130"
            }
        },
        {
            "type": "Feature",
            "geometry": {
                "type": "Point",
                "coordinates": [
                    30.4419350276,
                    39.8020640598
                ]
            },
            "properties": {
                "category_code": 8,
                "updated_at": "2026-09-28T18:36:22.727134"
            }
        },
        {
            "type": "Feature",
            "geometry": {
                "type": "Point",
                "coordinates": [
                    30.4398898432,
                    39.8018226431
                ]
            },
            "properties": {
                "category_code": 8,
                "updated_at": "2026-09-28T18:36:22.727137"
            }
        },
        {
            "type": "Feature",
            "geometry": {
                "type": "Point",
                "coordinates": [
                    30.4635710666,
                    39.7737506447
                ]
            },
            "properties": {
                "category_code": 8,
                "updated_at": "2026-09-28T18:36:22.727139"
            }
        },
        {
            "type": "Feature",
            "geometry": {
                "type": "Point",
                "coordinates": [
                    30.4619456479,
                    39.7738726586
                ]
            },
            "properties": {
                "category_code": 8,
                "updated_at": "2026-09-28T18:36:22.727147"
            }
        },
        {
            "type": "Feature",
            "geometry": {
                "type": "Point",
                "coordinates": [
                    30.4694853375,
                    39.7913351701
                ]
            },
            "properties": {
                "category_code": 8,
                "updated_at": "2026-09-28T18:36:22.727149"
            }
        },
        {
            "type": "Feature",
            "geometry": {
                "type": "Point",
                "coordinates": [
                    30.4922747264,
                    39.7873185704
                ]
            },
            "properties": {
                "category_code": 8,
                "updated_at": "2026-09-28T18:36:22.727151"
            }
        },
        {
            "type": "Feature",
            "geometry": {
                "type": "Point",
                "coordinates": [
                    30.5260035048,
                    39.7752701344
                ]
            },
            "properties": {
                "category_code": 8,
                "updated_at": "2026-09-28T18:36:22.727153"
            }
        },
        {
            "type": "Feature",
            "geometry": {
                "type": "Point",
                "coordinates": [
                    30.5238577375,
                    39.7747658533
                ]
            },
            "properties": {
                "category_code": 8,
                "updated_at": "2026-09-28T18:36:22.727155"
            }
        },
        {
            "type": "Feature",
            "geometry": {
                "type": "Point",
                "coordinates": [
                    30.5320317695,
                    39.7609658772
                ]
            },
            "properties": {
                "category_code": 8,
                "updated_at": "2026-09-28T18:36:22.727157"
            }
        },
        {
            "type": "Feature",
            "geometry": {
                "type": "Point",
                "coordinates": [
                    30.6009699056,
                    39.8493299129
                ]
            },
            "properties": {
                "category_code": 8,
                "updated_at": "2026-09-28T18:36:22.727159"
            }
        },
        {
            "type": "Feature",
            "geometry": {
                "type": "Point",
                "coordinates": [
                    30.6113755355,
                    39.7677169983
                ]
            },
            "properties": {
                "category_code": 8,
                "updated_at": "2026-09-28T18:36:22.727161"
            }
        },
        {
            "type": "Feature",
            "geometry": {
                "type": "Point",
                "coordinates": [
                    30.6289547334,
                    39.7379713294
                ]
            },
            "properties": {
                "category_code": 8,
                "updated_at": "2026-09-28T18:36:22.727162"
            }
        },
        {
            "type": "Feature",
            "geometry": {
                "type": "Point",
                "coordinates": [
                    30.6294697175,
                    39.7391461375
                ]
            },
            "properties": {
                "category_code": 8,
                "updated_at": "2026-09-28T18:36:22.727164"
            }
        }
    ]
}