{
    "type": "FeatureCollection",
    "features": [
        {
            "type": "Feature",
            "geometry": {
                "type": "Point",
                "coordinates": [
                    30.4356237898,
                    39.813203273
                ]
            },
            "properties": {
                "category_code": 8,
                "updated_at": "2026-10-08T07:19:17.229572"
            }
        },
        {
            "type": "Feature",
            "geometry": {
                "type": "Point",
                "coordinates": [
                    30.4298731336,
                    39.8202239061
                ]
            },
            "properties": {
                "category_code": 8,
                "updated_at": "2026-10-08T07:19:17.229589"
            }
        },
        {
            "type": "Feature",
            "geometry": {
                "type": "Point",
                "coordinates": [
                    30.4398898432,
                    39.8018226431
                ]
            },
            "properties": {
                "category_code": 8,
                "updated_at": "2026-10-08T07:19:17.229591"
            }
        },
        {
            "type": "Feature",
            "geometry": {
                "type": "Point",
                "coordinates": [
                    30.4419350276,
                    39.8020640598
                ]
            },
            "properties": {
                "category_code": 8,
                "updated_at": "2026-10-08T07:19:17.229592"
            }
        },
        {
            "type": "Feature",
            "geometry": {
                "type": "Point",
                "coordinates": [
                    30.4437294254,
                    39.8176248592
                ]
            },
            "properties": {
                "category_code": 6,
                "updated_at": "2026-10-08T07:19:17.229593"
            }
        },
        {
            "type": "Feature",
            "geometry": {
                "type": "Point",
                "coordinates": [
                    30.4694853375,
                    39.7913351701
                ]
            },
            "properties": {
                "category_code": 8,
                "updated_at": "2026-10-08T07:19:17.229595"
            }
        },
        {
            "type": "Feature",
            "geometry": {
                "type": "Point",
                "coordinates": [
                    30.4696865032,
                    39.7566757088
                ]
            },
            "properties": {
                "category_code": 6,
                "updated_at": "2026-10-08T07:19:17.229596"
            }
        },
        {
            "type": "Feature",
            "geometry": {
                "type": "Point",
                "coordinates": [
                    30.4922747264,
                    39.7873185704
                ]
            },
            "properties": {
                "category_code": 8,
                "updated_at": "2026-10-08T07:19:17.229596"
            }
        },
        {
            "type": "Feature",
            "geometry": {
                "type": "Point",
                "coordinates": [
                    30.5093671033,
                    39.7785651995
                ]
            },
            "properties": {
                "category_code": 6,
                "updated_at": "2026-10-08T07:19:17.229597"
            }
        },
        {
            "type": "Feature",
            "geometry": {
                "type": "Point",
                "coordinates": [
                    30.5072548637,
                    39.7733442736
                ]
            },
            "properties": {
                "category_code": 6,
                "updated_at": "2026-10-08T07:19:17.229599"
            }
        },
        {
            "type": "Feature",
            "geometry": {
                "type": "Point",
                "coordinates": [
                    30.5161195645,
                    39.7756429315
                ]
            },
            "properties": {
                "category_code": 6,
                "updated_at": "2026-10-08T07:19:17.229602"
            }
        },
        {
            "type": "Feature",
            "geometry": {
                "type": "Point",
                "coordinates": [
                    30.5183806667,
                    39.7735387625
                ]
            },
            "properties": {
                "category_code": 6,
                "updated_at": "2026-10-08T07:19:17.229603"
            }
        },
        {
            "type": "Feature",
            "geometry": {
                "type": "Point",
                "coordinates": [
                    30.520616288,
                    39.803851702
                ]
            },
            "properties": {
                "category_code": 8,
                "updated_at": "2026-10-08T07:19:17.229604"
            }
        },
        {
            "type": "Feature",
            "geometry": {
                "type": "Point",
                "coordinates": [
                    30.5260035048,
                    39.7752701344
                ]
            },
            "properties": {
                "category_code": 8,
                "updated_at": "2026-10-08T07:19:17.229605"
            }
        },
        {
            "type": "Feature",
            "geometry": {
                "type": "Point",
                "coordinates": [
                    30.5535350392,
                    39.7391836496
                ]
            },
            "properties": {
                "category_code": 6,
                "updated_at": "2026-10-08T07:19:17.229605"
            }
        },
        {
            "type": "Feature",
            "geometry": {
                "type": "Point",
                "coordinates": [
                    30.5590684364,
                    39.762626175
                ]
            },
            "properties": {
                "category_code": 6,
                "updated_at": "2026-10-08T07:19:17.229606"
            }
        },
        {
            "type": "Feature",
            "geometry": {
                "type": "Point",
                "coordinates": [
                    30.5637381623,
                    39.7435838273
                ]
            },
            "properties": {
                "category_code": 9,
                "updated_at": "2026-10-08T07:19:17.229607"
            }
        },
        {
            "type": "Feature",
            "geometry": {
                "type": "Point",
                "coordinates": [
                    30.572396333,
                    39.7645707626
                ]
            },
            "properties": {
                "category_code": 6,
                "updated_at": "2026-10-08T07:19:17.229608"
            }
        },
        {
            "type": "Feature",
            "geometry": {
                "type": "Point",
                "coordinates": [
                    30.6009699056,
                    39.8493299129
                ]
            },
            "properties": {
                "category_code": 8,
                "updated_at": "2026-10-08T07:19:17.229609"
            }
        },
        {
            "type": "Feature",
            "geometry": {
                "type": "Point",
                "coordinates": [
                    27.6373804,
                    39.4549975
                ]
            },
            "properties": {
                "source": "KGM",
                "description": "Kınalı-Tekirdağ-Çanakkale-Savaştepe Otoyolu Projesi Malkara-Çanakkale (1915 Çanakkale Köprüsü Dahil) Kesimi Otoyolu'nun O-6/13 008 ile O-6/20 003 kesimleri arasında muhtelif mevkiilerde üst yapı bakım onarım çalışması yapılması planlanmaktadır. Çalışmalara 02.09.2026 tarihinde başlanmış olmakla beraber çalışmaların 30.10.2026 tarihinde tamamlanması planlanmaktadır.",
                "extracted_keyword": "Savaştepe Otoyolu",
                "category": "road_work",
                "updated_at": "2026-10-08T07:19:18.916760"
            }
        },
        {
            "type": "Feature",
            "geometry": {
                "type": "Point",
                "coordinates": [
                    27.3067706,
                    38.1922612
                ]
            },
            "properties": {
                "source": "KGM",
                "description": "İzmir-Aydın Otoyolunun 5.km.sindeki Aydın Güney Kavşak Köprüsünde genleşme derzlerinin yenilenmesi ve genleşme derz betonlarının onarım çalışmaları nedeniyle 09.10.2026-21.10.2026 tarihleri arasında İzmir istikametinde sağ ve emniyet şeridi trafiğe kapatılacak olup, ulaşım sol ve orta şeritten sağlanacaktır.",
                "extracted_keyword": "Aydın Otoyolu",
                "category": "road_work",
                "updated_at": "2026-10-08T07:19:19.092107"
            }
        },
        {
            "type": "Feature",
            "geometry": {
                "type": "Point",
                "coordinates": [
                    40.8686251,
                    38.9114619
                ]
            },
            "properties": {
                "source": "KGM",
                "description": "Çeşmeli-Kızkalesi Otoyol Yapım Çalışmaları kapsamında devam eden üst yapı çalışmaları nedeniyle trafik kontrollü olarak sağlanmaktadır.",
                "extracted_keyword": "Çeşmeli Yolu",
                "category": "road_work",
                "updated_at": "2026-10-08T07:19:19.256883"
            }
        },
        {
            "type": "Feature",
            "geometry": {
                "type": "Point",
                "coordinates": [
                    34.189714,
                    37.8338177
                ]
            },
            "properties": {
                "source": "KGM",
                "description": "Aksaray-Ortaköy ylunun 43-44.km.leri arasında yol yapım çalışmaları nedeniyle ulaşım servis yolundan sağlanmaktadır. Bu yolu kullanacak sürücülerin trafik işaret ve işaretçilerine dikkat etmeleri gerekmektedir.",
                "extracted_keyword": "Aksaray Yolu",
                "category": "road_work",
                "updated_at": "2026-10-08T07:19:19.435541"
            }
        },
        {
            "type": "Feature",
            "geometry": {
                "type": "Point",
                "coordinates": [
                    32.2958524,
                    40.0116668
                ]
            },
            "properties": {
                "source": "KGM",
                "description": "Polatlı-Ankara yolunun 44-45.km.leri arasında Turkuaz mahallesi karayolları eğitim tesisleri yolundaki eski köprü trafiğe kapatılmış olup, ulaşım yeni köprü üzerinden verilmektedir.",
                "extracted_keyword": "Polatlı Yolu",
                "category": "road_work",
                "updated_at": "2026-10-08T07:19:19.598008"
            }
        },
        {
            "type": "Feature",
            "geometry": {
                "type": "Point",
                "coordinates": [
                    34.7065814,
                    37.9795618
                ]
            },
            "properties": {
                "source": "KGM",
                "description": "Kayseri-Niğde yolunun 22-26.km.leri arasında yol yapım çalışması olduğundan ulaşım bölünmüş yolun bir bölümünden iki yönlü olarak sağlanmaktadır.",
                "extracted_keyword": "Kayseri Yolu",
                "category": "road_work",
                "updated_at": "2026-10-08T07:19:19.778219"
            }
        },
        {
            "type": "Feature",
            "geometry": {
                "type": "Point",
                "coordinates": [
                    35.5516071,
                    38.7481263
                ]
            },
            "properties": {
                "source": "KGM",
                "description": "Malatya-Elazığ yolunun 68-69.km.leri arasındaki Handere-2 Köprüsünde sanat yapıları çalışmaları nedeniyle ulaşım kontrollü olarak sağlanmaktadır.",
                "extracted_keyword": "Malatya Yolu",
                "category": "road_work",
                "updated_at": "2026-10-08T07:19:20.099795"
            }
        },
        {
            "type": "Feature",
            "geometry": {
                "type": "Point",
                "coordinates": [
                    33.6398824,
                    41.7010235
                ]
            },
            "properties": {
                "source": "KGM",
                "description": "Ağlı-Kastamonu yolunun 0-1.km.leri arasında DSİ 23. Bölge Müdürlüğü tarafından yapılan sanat yapısı çalışmaları nedeniyle ulaşım kontrollü olarak sağlanmaktadır. Sürücülerin trafik işaret ve işaretçilerine uymaları gerekmektedir.",
                "extracted_keyword": "Ağlı Yolu",
                "category": "road_work",
                "updated_at": "2026-10-08T07:19:20.269188"
            }
        }
    ]
}